OBJECT_NAME,OBJECT_ID,EPOCH,MEAN_MOTION,ECCENTRICITY,INCLINATION,RA_OF_ASC_NODE,ARG_OF_PERICENTER,MEAN_ANOMALY,EPHEMERIS_TYPE,CLASSIFICATION_TYPE,NORAD_CAT_ID,ELEMENT_SET_NO,REV_AT_EPOCH,BSTAR,MEAN_MOTION_DOT,MEAN_MOTION_DDOT
ONEWEB-0522,2022-138AD,2026-06-19T19:06:20.666592,13.19725052,.0001715,87.9183,304.4372,100.2523,259.8803,0,U,54140,999,17715,.16215E-3,.78E-6,0
ONEWEB-0523,2022-138AE,2026-06-19T12:42:11.244384,13.20771731,.00027828,87.9199,273.9735,96.6852,263.4598,0,U,54141,999,17961,.19977053E-3,.94E-6,0
ONEWEB-0524,2022-138AF,2026-06-19T17:54:54.967392,13.20771736,.00027,87.9197,273.9274,113.9849,246.1567,0,U,54142,999,17964,.42774E-4,.3E-6,0
ONEWEB-0525,2022-138AG,2026-06-19T19:33:37.480032,13.19725454,.0001571,87.9182,304.4411,109.2107,250.9196,0,U,54143,999,17717,-.32524E-3,-.117E-5,0
ONEWEB-0526,2022-138AH,2026-06-19T14:53:51.671616,13.19726529,.00018331,87.9186,304.4801,103.7043,256.4294,0,U,54144,999,17712,.13111261E-3,.65E-6,0
ONEWEB-0529,2022-138AJ,2026-06-19T14:58:25.037760,13.19724775,.00016989,87.9176,304.4884,104.4913,255.6408,0,U,54145,999,17714,.23863853E-3,.108E-5,0
ONEWEB-0531,2022-138AK,2026-06-19T17:35:31.842816,13.20772099,.0002865,87.9195,273.9277,101.4574,258.6881,0,U,54146,999,17964,-.70398E-4,-.16E-6,0
ONEWEB-0535,2022-138AL,2026-06-19T19:24:31.614336,13.19725303,.0002156,87.9181,304.4361,94.6509,265.4870,0,U,54147,999,17718,.16658E-4,.2E-6,0
ONEWEB-0536,2022-138AM,2026-06-19T13:37:56.792352,13.20771574,.00029835,87.9185,273.9828,104.8162,255.3302,0,U,54148,999,17961,.20283445E-4,.21E-6,0
ONEWEB-0527,2022-166A,2026-06-19T16:11:26.457792,13.21823307,.000198,87.9250,243.5024,100.2783,259.8574,0,U,54642,999,17186,.90167E-4,.5E-6,0
ONEWEB-0528,2022-166B,2026-06-19T16:12:39.021696,13.21824435,.0001888,87.9251,243.5044,104.1272,256.0071,0,U,54643,999,17187,.46125E-4,.32E-6,0
ONEWEB-0539,2022-166C,2026-06-19T15:18:09.806400,13.21827150,.0001922,87.9260,243.4839,93.0418,267.0936,0,U,54644,999,17186,.8841E-4,.5E-6,0
ONEWEB-0540,2022-166D,2026-06-19T17:17:02.798592,13.21827698,.0002002,87.9253,243.4976,95.1795,264.9567,0,U,54645,999,17186,.21447E-3,.102E-5,0
ONEWEB-0542,2022-166E,2026-06-19T15:32:41.076096,13.21825973,.0001915,87.9262,243.4806,90.1593,269.9760,0,U,54646,999,17186,-.29461E-3,-.109E-5,0
ONEWEB-0545,2022-166F,2026-06-19T16:30:50.562144,13.21819177,.0002031,87.9254,243.4846,81.5123,278.6241,0,U,54647,999,17183,.40835E-2,.17E-4,0
ONEWEB-0580,2022-166G,2026-06-19T10:27:27.916128,13.21827968,.0002175,87.9253,243.5342,88.2364,271.9019,0,U,54648,999,17184,-.9031844E-5,.9E-7,0
ONEWEB-0582,2022-166H,2026-06-19T16:55:03.441216,13.21827086,.0002099,87.9253,243.4732,86.6096,273.5278,0,U,54649,999,17185,.18859E-3,.91E-6,0
ONEWEB-0583,2022-166J,2026-06-19T15:22:59.840832,13.21825408,.0001997,87.9252,243.5093,95.6531,264.4831,0,U,54650,999,17185,-.31189E-3,-.116E-5,0
ONEWEB-0584,2022-166K,2026-06-19T10:25:03.770688,13.21825591,.00020948,87.9246,243.5359,95.5765,264.5608,0,U,54651,999,17181,-.73613677E-4,-.17E-6,0
ONEWEB-0585,2022-166L,2026-06-19T16:25:59.615328,13.21826836,.0002017,87.9255,243.4732,103.5053,256.6306,0,U,54652,999,17185,.20802E-3,.99E-6,0
ONEWEB-0586,2022-166M,2026-06-19T16:45:21.493152,13.21824616,.0001952,87.9255,243.4959,93.7800,266.3557,0,U,54653,999,17185,.38759E-3,.173E-5,0
ONEWEB-0587,2022-166N,2026-06-19T16:59:53.499840,13.21824717,.0002079,87.9265,243.4675,107.9989,252.1372,0,U,54654,999,17201,.12937E-3,.66E-6,0
ONEWEB-0589,2022-166P,2026-06-19T16:40:30.955008,13.21824386,.0002308,87.9250,243.4822,76.8532,283.2859,0,U,54655,999,17187,.21052E-3,.1E-5,0
ONEWEB-0590,2022-166Q,2026-06-19T17:16:39.144864,13.21827835,.0002494,87.9261,243.4677,98.5749,261.5667,0,U,54656,999,17186,.45519E-4,.32E-6,0
ONEWEB-0591,2022-166R,2026-06-19T17:33:49.269600,13.21826650,.0002088,87.9251,243.4797,98.0932,262.0439,0,U,54657,999,17189,.13378E-4,.19E-6,0
ONEWEB-0592,2022-166S,2026-06-19T15:49:38.337600,13.21827708,.0002013,87.9261,243.4726,98.2939,261.8423,0,U,54658,999,17176,.9935E-4,.54E-6,0
ONEWEB-0593,2022-166T,2026-06-19T16:21:07.758720,13.21824549,.0001897,87.9254,243.4798,95.2607,264.8743,0,U,54659,999,17187,.20772E-3,.99E-6,0
ONEWEB-0594,2022-166U,2026-06-19T16:50:12.581664,13.21828046,.0001909,87.9252,243.4919,103.1127,257.0220,0,U,54660,999,17189,.23587E-3,.11E-5,0
ONEWEB-0595,2022-166V,2026-06-19T10:49:16.339584,13.21828244,.00021462,87.9260,243.5225,104.9196,255.2176,0,U,54661,999,17183,.29620098E-3,.135E-5,0
ONEWEB-0596,2022-166W,2026-06-19T15:39:57.873888,13.21827042,.0002061,87.9254,243.4939,101.2969,258.8396,0,U,54662,999,17186,.10739E-3,.57E-6,0
